{
  "type": "FeatureCollection",
  "name": "Millbrook Solar & Storage – site boundary (Layout Rev C)",
  "crs": {
    "type": "name",
    "properties": {
      "name": "urn:ogc:def:crs:OGC:1.3:CRS84"
    }
  },
  "features": [
    {
      "type": "Feature",
      "properties": {
        "name": "Site boundary (red line)",
        "project": "Millbrook Solar & Storage",
        "planning_ref": "MDC/2026/0412",
        "area_ha": 142.0,
        "layout": "Rev C",
        "landowners": "Ashcombe Farm; Hollins Farm"
      },
      "geometry": {
        "type": "Polygon",
        "coordinates": [
          [
            [
              -0.6215,
              52.9312
            ],
            [
              -0.613773,
              52.93084
            ],
            [
              -0.605452,
              52.93111
            ],
            [
              -0.597577,
              52.93174
            ],
            [
              -0.596834,
              52.934977
            ],
            [
              -0.597874,
              52.938574
            ],
            [
              -0.603967,
              52.939563
            ],
            [
              -0.611099,
              52.939294
            ],
            [
              -0.617934,
              52.938934
            ],
            [
              -0.621946,
              52.936686
            ],
            [
              -0.622392,
              52.933538
            ],
            [
              -0.6215,
              52.9312
            ]
          ]
        ]
      }
    },
    {
      "type": "Feature",
      "properties": {
        "name": "BESS compound",
        "capacity": "20 MW / 40 MWh",
        "area_ha": 0.9
      },
      "geometry": {
        "type": "Polygon",
        "coordinates": [
          [
            [
              -0.600995,
              52.937495
            ],
            [
              -0.599509,
              52.937495
            ],
            [
              -0.599509,
              52.938304
            ],
            [
              -0.600995,
              52.938304
            ],
            [
              -0.600995,
              52.937495
            ]
          ]
        ]
      }
    },
    {
      "type": "Feature",
      "properties": {
        "name": "Public footpath FP14",
        "buffer_m": 30
      },
      "geometry": {
        "type": "LineString",
        "coordinates": [
          [
            -0.621797,
            52.932279
          ],
          [
            -0.615259,
            52.934617
          ],
          [
            -0.608127,
            52.936236
          ],
          [
            -0.602184,
            52.938574
          ],
          [
            -0.6004,
            52.940013
          ]
        ]
      }
    },
    {
      "type": "Feature",
      "properties": {
        "name": "132 kV cable route (indicative)",
        "length_km": 3.8,
        "to": "Millbrook 132 kV substation",
        "offer": "NGT-OFF-2025-1187"
      },
      "geometry": {
        "type": "LineString",
        "coordinates": [
          [
            -0.599212,
            52.938035
          ],
          [
            -0.593268,
            52.940013
          ],
          [
            -0.582867,
            52.94424
          ],
          [
            -0.57098,
            52.950085
          ],
          [
            -0.557607,
            52.955031
          ]
        ]
      }
    },
    {
      "type": "Feature",
      "properties": {
        "name": "Construction access – haul road junction B4127"
      },
      "geometry": {
        "type": "Point",
        "coordinates": [
          -0.596983,
          52.933898
        ]
      }
    },
    {
      "type": "Feature",
      "properties": {
        "name": "Operational access – Mill Lane (Ashcombe Farm entrance)"
      },
      "geometry": {
        "type": "Point",
        "coordinates": [
          -0.613179,
          52.930885
        ]
      }
    }
  ]
}
